<?xml version="1.0" encoding="UTF-8"?>
<kml xmlns="http://www.opengis.net/kml/2.2" xmlns:gx="http://www.google.com/kml/ext/2.2" xmlns:kml="http://www.opengis.net/kml/2.2" xmlns:atom="http://www.w3.org/2005/Atom">
<Document id="document">
	<name>3 rivers</name>
	<gx:CascadingStyle kml:id="__managed_style_03DAA8840241969F6F11_highlight">
		<styleUrl>https://earth.google.com/balloon_components/base/1.1.0.0/card_template.kml#main</styleUrl>
		<Style>
			<IconStyle>
				<scale>1.2</scale>
				<Icon>
					<href>https://earth.google.com/earth/document/icon?color=1976d2&amp;id=2000&amp;scale=4</href>
				</Icon>
				<hotSpot x="64" y="128" xunits="pixels" yunits="insetPixels"/>
			</IconStyle>
			<LabelStyle>
			</LabelStyle>
			<LineStyle>
				<color>ff2dc0fb</color>
				<width>4.8</width>
			</LineStyle>
			<PolyStyle>
				<color>40ffffff</color>
			</PolyStyle>
			<BalloonStyle>
			</BalloonStyle>
		</Style>
	</gx:CascadingStyle>
	<gx:CascadingStyle kml:id="__managed_style_03DAA8840241969F6F11_normal">
		<styleUrl>https://earth.google.com/balloon_components/base/1.1.0.0/card_template.kml#main</styleUrl>
		<Style>
			<IconStyle>
				<Icon>
					<href>https://earth.google.com/earth/document/icon?color=1976d2&amp;id=2000&amp;scale=4</href>
				</Icon>
				<hotSpot x="64" y="128" xunits="pixels" yunits="insetPixels"/>
			</IconStyle>
			<LabelStyle>
			</LabelStyle>
			<LineStyle>
				<color>ff2dc0fb</color>
				<width>3.2</width>
			</LineStyle>
			<PolyStyle>
				<color>40ffffff</color>
			</PolyStyle>
			<BalloonStyle>
			</BalloonStyle>
		</Style>
	</gx:CascadingStyle>
	<StyleMap id="__managed_style_03DAA8840241969F6F11">
		<Pair>
			<key>normal</key>
			<styleUrl>#__managed_style_03DAA8840241969F6F11_normal</styleUrl>
		</Pair>
		<Pair>
			<key>highlight</key>
			<styleUrl>#__managed_style_03DAA8840241969F6F11_highlight</styleUrl>
		</Pair>
	</StyleMap>
	<Placemark id="04302F7E2D41969F6EC7">
		<name>Ganges</name>
		<LookAt>
			<longitude>89.53047009899541</longitude>
			<latitude>24.22112948721544</latitude>
			<altitude>101.2744494013092</altitude>
			<heading>0</heading>
			<tilt>0</tilt>
			<gx:fovy>35</gx:fovy>
			<range>334172.4648210034</range>
			<altitudeMode>absolute</altitudeMode>
		</LookAt>
		<styleUrl>#__managed_style_03DAA8840241969F6F11</styleUrl>
		<LineString>
			<coordinates>
				87.78504343816932,25.15202600053381,0 87.79073728589037,25.09465504213845,0 87.87622608576454,25.03814644470535,0 87.94500070775609,25.00299525950216,0 87.94591970494902,24.95301910362376,0 87.94333840425064,24.89220806413679,0 87.93337606689006,24.81342039454697,0 87.93462418901734,24.7527324423909,0 87.93586177767021,24.69916340944168,0 88.01652497277476,24.64295835398475,0 88.08083035152767,24.60086977655526,0 88.13678567106606,24.56941682165979,0 88.16905775529816,24.53058280754965,0 88.20969351825291,24.45979452590123,0 88.25449334146647,24.43523837298835,0 88.32099119147864,24.42891481854769,0 88.36872824290458,24.4080470417221,0 88.40486786741987,24.36927521184886,0 88.44427203580484,24.35546450950185,0 88.51104029461102,24.3490311948662,0 88.56617518383639,24.34599683999905,0 88.6409917427445,24.32536601346566,0 88.72043324865382,24.27986024337966,0 88.74029820269288,24.21033988148297,0 88.76102210432821,24.17133436780195,0 88.79518911018103,24.14269819104748,0 88.83159490543579,24.11201943039299,0 88.88379725905641,24.07936538736106,0 88.91987492883949,24.1021676464725,0 88.94233530772787,24.13311624981985,0 88.97162524524022,24.1455709991351,0 88.99654380716127,24.11893262351621,0 89.01692940584464,24.06756958351132,0 89.02383103687589,24.02027489801697,0 89.04643664267107,23.98742326486525,0 89.1072635038452,23.96289640510781,0 89.15908320742039,23.94657208311422,0 89.23345916722087,23.93239828702571,0 89.30327168290869,23.92228966245768,0 89.36177811007025,23.89972742929072,0 89.4472584039522,23.854471342274,0 89.50798151515311,23.83181702520402,0 89.56195239696491,23.80913645214354,0 89.6294154357644,23.80084758261947,0 89.71711336278533,23.78219332843333,0 89.74858767223989,23.76771316895953,0 89.78682157433042,23.76970616933716,0 
			</coordinates>
		</LineString>
	</Placemark>
	<Placemark id="089C2E8DB84196A12C04">
		<name>Jamuna</name>
		<LookAt>
			<longitude>89.75396127731769</longitude>
			<latitude>23.93418313394688</latitude>
			<altitude>10.86731038557441</altitude>
			<heading>0.2977715285448493</heading>
			<tilt>0</tilt>
			<gx:fovy>35</gx:fovy>
			<range>73359.10600162113</range>
			<altitudeMode>absolute</altitudeMode>
		</LookAt>
		<styleUrl>#__managed_style_03DAA8840241969F6F11</styleUrl>
		<LineString>
			<coordinates>
				89.82416213985067,25.93279019643353,0 89.80101417010569,25.84226809054737,0 89.76637501435015,25.75579785850737,0 89.74322861639551,25.67145051526935,0 89.72026019835617,25.52968020214731,0 89.68366794688794,25.4125032328951,0 89.64025906152519,25.29945370659746,0 89.61518520528439,25.21301588518915,0 89.61052511563337,25.07925256157835,0 89.60588937691784,24.98878319264279,0 89.60407893997612,24.8977639246821,0 89.61153136381874,24.79906701629881,0 89.63703236557478,24.72944959676521,0 89.63588988325488,24.69031430542003,0 89.65970281259682,24.66642549395847,0 89.68022322944961,24.62833931313545,0 89.70155927980733,24.58499411374523,0 89.71222594106419,24.55807236556194,0 89.72257764627663,24.50232688612703,0 89.72996211605263,24.47725325972057,0 89.74137304534261,24.45095022523729,0 89.74973552046231,24.41151873212421,0 89.77158065292002,24.38022563061731,0 89.78561180819884,24.34039434975669,0 89.76998949870837,24.2934134366022,0 89.74579940002427,24.26211948209158,0 89.75593348663431,24.218673044618,0 89.76365282176839,24.12518922849568,0 89.75164418720991,24.09371272226515,0 89.72764978993686,24.04989810565353,0 89.7089117220409,24.0204465357476,0 89.72464549389208,23.98862845652251,0 89.73574166206046,23.96457766218552,0 89.73715969629875,23.91421423771154,0 89.73297587783395,23.87787784507472,0 89.7394036343721,23.84478783228936,0 89.75474056934995,23.82448192239226,0 89.77835265596279,23.79852634724257,0 89.79255123373602,23.77947802285491,0 89.80432094423809,23.76998001203006,0 
			</coordinates>
		</LineString>
	</Placemark>
	<Placemark id="050F1B38824196A2AC94">
		<name>Padma</name>
		<LookAt>
			<longitude>90.38733255226866</longitude>
			<latitude>23.44698974349035</latitude>
			<altitude>45.93084640321739</altitude>
			<heading>0.2977715271837837</heading>
			<tilt>0</tilt>
			<gx:fovy>35</gx:fovy>
			<range>179725.6767486222</range>
			<altitudeMode>absolute</altitudeMode>
		</LookAt>
		<styleUrl>#__managed_style_03DAA8840241969F6F11</styleUrl>
		<LineString>
			<coordinates>
				89.80346186492062,23.76755631265789,0 89.83048521144988,23.75075168775164,0 89.85903593553738,23.74070518313705,0 89.90032328634194,23.71796053014945,0 89.9465290315168,23.69654868956822,0 89.99270392390278,23.67239432128701,0 90.03243189334513,23.64011511758206,0 90.0647680382541,23.61194733049738,0 90.1064674638415,23.58369876754217,0 90.1177632315803,23.56957016002823,0 90.13896690070189,23.54406846492013,0 90.15156652078983,23.52936335625586,0 90.15787962339056,23.52431597623902,0 90.17962982397135,23.48814572156235,0 90.18767134811544,23.47902742685754,0 90.26212066876917,23.4463632316506,0 90.34280238450117,23.44067714277024,0 90.37390563158145,23.4272266659313,0 90.40027620590241,23.3497914079584,0 90.43397331727346,23.31775162741905,0 90.48479493086035,23.31333875085424,0 90.52092971411638,23.31578911656415,0 90.56888794149661,23.31540507973484,0 90.6160794928425,23.30619861695737,0 90.63169919091139,23.26250650016831,0 90.63806476753528,23.25212455888652,0 90.63237853289522,23.21355715446916,0 90.6283996176807,23.09898543025542,0 90.61729520905612,23.04685515549364,0 90.60620539477999,23.00700645277105,0 
			</coordinates>
		</LineString>
	</Placemark>
</Document>
</kml>
